INMARSAT GX5            
1 44801U 19080B   26116.27544766  .00000062  00000+0  00000+0 0  9998
2 44801   0.0470  20.5677 0001699  11.2674 292.6188  1.00269427  6264
JCSAT-18 (KACIFIC 1)    
1 44868U 19091A   26116.45245850 -.00000213  00000+0  00000+0 0  9994
2 44868   0.0204 347.3599 0000127 289.6490 250.3443  1.00270873 23493
ELEKTRO-L 3             
1 44903U 19095A   26116.50905991 -.00000108  00000+0  00000+0 0  9996
2 44903   0.1252  75.7360 0001080 295.0500 102.9252  1.00271264 23199
SHIJIAN-20 (SJ-20)      
1 44910U 19097A   26116.50281987  .00000127  00000+0  00000+0 0  9998
2 44910   4.7895  75.6805 0011524  51.5438 313.0471  1.00274333 23189
TJS-5                   
1 44978U 20002A   26116.51529993 -.00000354  00000+0  00000+0 0  9996
2 44978   0.1402 270.8865 0006161 123.2109 113.4399  1.00271513 23183
GSAT-30                 
1 45026U 20005A   26116.51044656  .00000000  00000+0  00000+0 0  9999
2 45026   0.0192 124.3236 0002778 305.3557  51.6063  1.00268441 22993
EUTELSAT KONNECT        
1 45027U 20005B   26116.35284586  .00000037  00000+0  00000+0 0  9990
2 45027   0.0688  89.4434 0001998 204.5070  54.6374  1.00270143 23810
JCSAT-17                
1 45245U 20013A   26115.95055966 -.00000335  00000+0  00000+0 0  9996
2 45245   5.3943 356.3720 0004025  24.9691 310.8132  1.00272021 22708
GEO-KOMPSAT-2B          
1 45246U 20013B   26116.41780597  .00000000  00000+0  00000+0 0  9992
2 45246   0.0120 259.5863 0001028  81.6823 151.8341  1.00268205 22767
BEIDOU-3 G2             
1 45344U 20017A   26116.50983991 -.00000151  00000+0  00000+0 0  9996
2 45344   2.7623  46.5278 0002527 347.1589  84.4073  1.00271418 22742
AEHF-6 (USA 298)        
1 45465U 20022B   26116.44994514 -.00000315  00000+0  00000+0 0  9994
2 45465   2.6634 300.5223 0046324  17.8083 195.8781  1.00271288 22493
BEIDOU-3 G3             
1 45807U 20040A   26116.51885309 -.00000364  00000+0  00000+0 0  9997
2 45807   2.3224  67.2935 0003731 329.1363 115.4190  1.00270512 21554
APSTAR-6D               
1 45863U 20045A   26114.83686590 -.00000332  00000+0  00000+0 0  9993
2 45863   0.0529  81.5973 0003007   9.9326 196.6399  1.00271734 21322
KOREASAT 116            
1 45920U 20048A   26116.51685992 -.00000374  00000+0  00000+0 0  9998
2 45920   0.0138 271.9900 0000919 113.0536 131.7283  1.00274663 21120
EXPRESS 103             
1 45985U 20053A   26114.58798068 -.00000295  00000+0  00000+0 0  9991
2 45985   0.0139 255.8354 0000539  23.7967 241.1699  1.00271329 21111
EXPRESS 80              
1 45986U 20053B   26114.18978950 -.00000183  00000+0  00000+0 0  9994
2 45986   0.0234 276.1549 0010319 169.7940 274.1604  1.00439847 21099
BSAT-4B                 
1 46112U 20056A   26116.51573325 -.00000362  00000+0  00000+0 0  9994
2 46112   0.0696 108.1135 0003054 345.3873  56.5065  1.00270713 20876
